#dP2026  5 26  0  0  0.00000000     289 d+D   IGc20 FIT AIUB
## 2420 172800.00000000   300.00000000 61186 0.0000000000000
+  116   G01G02G03G04G05G06G07G08G09G10G11G12G13G14G15G16G17
+        G18G19G20G21G22G23G24G25G26G27G28G29G30G31G32R02R03
+        R04R05R06R07R08R09R11R12R14R15R16R17R18R19R20R21R22
+        R24R26E02E03E04E05E06E07E08E09E10E11E12E13E14E15E16
+        E18E19E21E23E25E26E27E28E29E30E31E32E33E34E36C06C07
+        C08C11C12C13C14C19C20C21C22C23C24C25C26C27C28C29C30
+        C31C32C33C34C35C36C37C38C39C41C42J02J03J04  0  0  0
++         5  5  5  5  5  5  5  5  5  5  5  5  7  5  5  5  5
++         5  5  5  5  5  5  5  5  5  5  6  5  5  5  5  5  5
++         5  5  5  5  5  5  5  5  5  5  5  5  5  5  5  5  5
++         5  5  5  5  5  5  5  5  5  5  5  5  5  5  5  5  5
++         5  5  5  5  5  5  5  5  5  5  5  5  5  5  5  5  5
++         5  5  5  5  5  5  5  5  5  5  5  5  5  5  5  5  5
++         5  5  5  5  5  5  5  5  5  5  5  5  5  5  0  0  0
%c M  cc GPS ccc cccc cccc cccc cccc ccccc ccccc ccccc ccccc
%c cc cc ccc ccc cccc cccc cccc cccc ccccc ccccc ccccc ccccc
%f  1.2500000  1.025000000  0.00000000000  0.000000000000000
%f  0.0000000  0.000000000  0.00000000000  0.000000000000000
%i    0    0    0    0      0      0      0      0         0
%i    0    0    0    0      0      0      0      0         0
/* Center for Orbit Determination in Europe (CODE)                              
/* MGEX orbits and clocks for year-day 2026-1460                                
/* Middle day of a 3-day long-arc multi-GNSS solution                           
/* Systems considered: GPS/GLONASS/Galileo/BeiDou/QZSS                          
/* Product reference - DOI 10.48620/97775                                       
/* PCV:IGS20_2417 OL/AL:FES2014b NONE     YN ORB:CoN CLK:CoN                    
*  2026  5 26 16 50  0.00000000
PG01  18110.318116  15126.524204 -12284.925796    264.590864
PG02   9837.448723  15169.721053 -19275.248403    106.451673
PG03  11706.802366  22214.187721   8619.613425    447.997412
PG04  10486.223156  10716.828238  21954.782025     58.237085
PG05  -5046.854943 -25560.545834   4890.822694   -233.425094
PG06  19231.184496  -6488.582413  17274.623352   -599.192255
PG07  25825.319617   7049.862081    776.612878   -189.008699
PG08    884.632958  19185.448302 -18338.685503    435.053221
PG09  18020.093495    256.889456  19436.716031    745.388224
PG10 -12550.789487   7823.883440 -21755.596410   -582.498235
PG11   6032.484128 -14020.084619  21785.062420   -327.461073
PG12  -9889.972543 -23576.169850   6905.923887   -607.420004
PG13 -11947.366462 -22889.454422   6085.825013    325.628900
PG14  14864.802642  -4638.368544 -21410.589141    747.235931
PG15  -3638.933841 -18898.586462 -18839.012023    414.884660
PG16  -1803.284568  24513.256460   9097.624560    270.123496
PG17  22087.631947 -11271.903121  -9512.203170   -143.111662
PG18 -26049.719553  -5304.720013  -2569.110469   -343.083180
PG19  20038.737019 -16968.919627     62.774422    700.679806
PG20   6015.278611 -21372.538160 -14530.480455    170.904023
PG21   3424.654729 -22825.787568  13109.540641    412.924239
PG22  12186.857194 -11875.929402 -20147.611866      4.754051
PG23 -15872.646990  -6032.993677 -20423.012426    651.791799
PG24 -13707.068023 -15098.159174 -17745.288571     30.137492
PG25 -16144.503195 -13728.479368  15775.032738    419.656600
PG26  -7288.181025  17865.948026  17841.439276   -369.025979
PG27  -9608.626083  21989.581720 -11261.194264      0.243860
PG28 -19833.933857   7120.143982  16184.926180   -518.436254
PG29 -17287.556746  -3230.699610  19913.539867   -313.683562
PG30  23895.047735  -2836.712673 -11313.884788    236.600228
PG31 -11103.247701  12101.557522  20643.735308   -146.579957
PG32 -20339.231860  15939.926948  -5439.999843     75.071944
PR02  -4945.676227 -12113.177811 -21863.120194     12.186073
PR03 -13861.346030   6686.373364 -20275.813530     13.669321
PR04 -14135.585399  20022.808873  -7017.044752    357.466439
PR05  -6960.981738  22537.478825   9700.469166    168.658215
PR06   4444.376657  13201.173867  21370.144119    -19.577997
PR07  13886.048671  -6550.960048  20426.326717    121.806876
PR08  13879.334790 -20329.668203   6818.411430     -4.896250
PR09  16292.320955  19243.787812  -4140.961057    328.371454
PR11   7293.016987  -8642.268589 -22848.339759      9.223933
PR12  -6037.207275 -20847.648801 -13377.341714     69.553697
PR14 -15848.288928  -7265.532333  18627.501761     32.669317
PR15  -6970.953133   9309.905510  22727.969768     55.882022
PR16   6191.231769  20890.039643  13314.982983     49.731237
PR17 -25505.787682   1035.128701    607.185802    299.195699
PR18 -19488.362089   7434.662177 -14643.923332    263.257603
PR19  -2084.223370  11086.045145 -22890.866754     48.936105
PR20  16857.246937   7971.677132 -17409.671918    232.877336
PR21  25125.454568    938.294501  -4204.746200   -311.101432
PR22  18333.161819  -8081.467483  15812.107826    127.652799
PR24 -17529.495978  -7152.707942  17116.262127   -167.746868
PR26  14444.901624 -18436.431727  10096.732223    -27.235826
PE02  -1686.936319  29006.619277   5613.032243     42.844937
PE03 -10215.486836  21723.189524  17330.028888    -19.334145
PE04  -9967.008532 -13491.542407 -24380.996837   -157.388876
PE05 -24162.538476  17114.161652    202.007832     37.231287
PE06 -18517.623835  -6023.307181 -22306.452129   -276.308381
PE07  23984.085373  -2394.798481  17168.994491    -66.331570
PE08   9699.152268  13514.330867  24482.261487   -152.843941
PE09 -23968.767718   2446.788372 -17213.985532   -303.154057
PE10 -25838.909215 -14208.618176   2582.061687   -794.643241
PE11 -27515.019033  -7522.141169  -7896.733153   5119.798748
PE12 -20562.699567 -18022.982751  11300.398590    -47.775831
PE13  27540.729894   7900.637679   7456.050342    -55.634993
PE14 -20389.549407  -4861.164745  20111.135452   3361.403118
PE15  20126.199568  18178.232738 -11874.013465   -261.253402
PE16 -16974.783502  -4808.523179  23770.890393    -34.527393
PE18  10311.511029  15182.525529 -20832.885270   2822.594178
PE19  11206.943181 -21613.022904 -16816.542667   2985.152598
PE21  13210.146477 -16443.153914 -20765.366655   -745.130289
PE23   1530.726959 -29005.283919  -5678.605770    -36.324583
PE25 -13454.671720  15881.855948  21050.556696     21.922732
PE26  18628.974093  -7015.626510  21907.968728    315.397879
PE27  16933.356736   6117.551222 -23491.059314   -999.249574
PE28   -623.509095 -19133.920289 -22579.578389    -46.329498
PE29  24109.407278 -17166.743793   -307.492849   -209.860117
PE30  10996.140442  24251.812518 -12926.222322  -1085.576312
PE31 -10614.766226 -24737.197487  12321.199963   -144.030891
PE32    568.629899  19156.052415  22563.814651     15.510234
PE33   -793.123256 -17478.611655  23873.858290    -16.462023
PE34    993.979289  17535.592240 -23832.391887   -256.477685
PE36 -18712.981313   6709.838461 -21930.532114   -571.017891
PC06  -7238.079030  35836.860983 -20782.253868    290.890201
PC07 -13989.794913  20113.268488  34408.386282    -24.865075
PC08 -24092.673423  30959.185816 -15826.993540   -235.291887
PC11  26418.642383  -8545.432163   2849.024659   -685.472386
PC12  16860.202806 -11522.262847  19015.244488    639.598802
PC13 -13564.641546  16512.446866 -17956.009179   -923.006263
PC14 -13533.291642  -8864.778138 -22738.210023   -343.770215
PC19  14590.824591 -20482.654697  12062.670023   -940.311156
PC20  16444.014379  -3796.995614  22214.189611   -907.109009
PC21  -8398.523202 -17490.136874 -20036.206973   -852.382850
PC22   4245.862076 -26923.520398  -5904.965836    454.326949
PC23   3912.950815  21854.271877  16911.872126   -458.756952
PC24 -22385.962746  -8252.184032  14484.389520   -361.956080
PC25 -11874.745628  11221.046980  22613.170073    857.743611
PC26 -19412.546814 -20066.311784   -586.245879   -645.594220
PC27  14740.159937  11667.932464 -20649.123219    637.668789
PC28  -1976.128507  16847.818984 -22158.085197    521.522025
PC29  22369.123911 -13630.147175   9610.807484    608.913830
PC30  26854.333155  -2208.601915  -7312.944989    456.145668
PC31 -15298.439327 -11105.555635  20495.390915    799.196023
PC32   8468.673228  17578.545359  19970.721745   -914.889423
PC33 -14481.153353  20581.505717 -12101.142827   -914.669206
PC34 -26718.606212   1765.522124   7813.372964    954.182668
PC35   3570.640212 -17283.128545  21598.120536   -401.894344
PC36  12494.074736 -10546.227485 -22590.315108    278.195549
PC37  18414.940598  20890.868508   1530.806327   -943.537875
PC38 -21354.074247  14371.261057 -10782.023246    139.066336
PC39  -3469.140229 -21691.625836 -17226.790498   -875.056732
PC41  -4979.777790  27095.395586   4641.699743   -941.443434
PC42 -16055.459441   1144.884337 -22769.459588   -892.445798
PJ02 -30890.873650  25681.595778  18278.360788     -0.276513
PJ03 -27051.548898  16785.147007 -22952.730850     -4.370034
PJ04 -24496.060326  33868.192120  -1518.255390      0.624044
EOF
